      2.10          N: GNSS NAV DATA                        RINEX VERSION / TYPE
fic2rin                                 09/20/2021 00:17:29 PGM / RUN BY / DATE
                                                            END OF HEADER
15 21  9 19 18  0  0.0-1.199380494654e-04 2.728484105319e-12 0.000000000000e+00
    2.900000000000e+01-7.978125000000e+01 5.237718171986e-09 1.621550815414e-01
   -3.928318619728e-06 1.367431075778e-02 1.056306064129e-05 5.153681983948e+03
    6.480000000000e+04-1.136213541031e-07 2.683069861109e+00 1.527369022369e-07
    9.297804740945e-01 1.602187500000e+02 1.028491955515e+00-8.547141737046e-09
   -2.575107263554e-10 1.000000000000e+00 2.176000000000e+03 0.000000000000e+00
    2.400000000000e+00 0.000000000000e+00-1.071020960808e-08 2.900000000000e+01
    5.760000000000e+04 4.000000000000e+00
 8 21  9 19 18  0  0.0-3.708200529218e-05-1.364242052659e-12 0.000000000000e+00
    1.010000000000e+02 7.000000000000e+00 3.991951995110e-09 1.154127870721e+00
    4.135072231293e-07 6.506075151265e-03 1.254491508007e-05 5.153660818100e+03
    6.480000000000e+04 1.490116119385e-08-3.572590076260e-01 1.024454832077e-07
    9.665534684202e-01 1.402812500000e+02 5.476864220236e-02-7.744965466042e-09
   -3.317995350682e-10 1.000000000000e+00 2.176000000000e+03 0.000000000000e+00
    2.400000000000e+00 0.000000000000e+00 5.122274160385e-09 1.010000000000e+02
    5.760000000000e+04 4.000000000000e+00
 7 21  9 19 18  0  0.0 2.481350675225e-04 6.934897101019e-12 0.000000000000e+00
    8.800000000000e+01 6.534375000000e+01 4.823415200318e-09-1.790353889712e+00
    3.272667527199e-06 1.527083327528e-02 7.463619112968e-06 5.153734508514e+03
    6.480000000000e+04 2.402812242508e-07-2.426289525315e+00-1.769512891769e-07
    9.514381950598e-01 2.289062500000e+02-2.306136878692e+00-8.027834391525e-09
    5.882387882210e-10 1.000000000000e+00 2.176000000000e+03 0.000000000000e+00
    2.400000000000e+00 0.000000000000e+00-1.117587089539e-08 8.800000000000e+01
    5.760000000000e+04 4.000000000000e+00
 4 21  9 19 18  0  0.0-2.042655833066e-04 1.136868377216e-13 0.000000000000e+00
    8.800000000000e+01-6.306250000000e+01 4.267320608175e-09 6.027512056585e-01
   -3.343448042870e-06 1.400981680490e-03 1.278892159462e-05 5.153706668854e+03
    6.480000000000e+04-3.166496753693e-08 2.836864924662e+00-2.048909664154e-08
    9.612097797770e-01 1.289375000000e+02-3.063251099515e+00-7.894614556670e-09
   -1.382200431339e-10 1.000000000000e+00 2.176000000000e+03 0.000000000000e+00
    2.400000000000e+00 0.000000000000e+00-4.190951585770e-09 6.000000000000e+02
    5.760000000000e+04 4.000000000000e+00
19 21  9 19 18  0  0.0 5.507282912731e-05 5.002220859751e-12 0.000000000000e+00
    2.600000000000e+01 2.381250000000e+01 3.589078070936e-09-2.810860550779e+00
    1.261010766029e-06 9.100822731853e-03 1.337565481663e-05 5.153661947250e+03
    6.480000000000e+04 3.911554813385e-08-2.326368492986e-01 7.450580596924e-08
    9.801751975113e-01 1.243437500000e+02 1.945031525890e+00-7.413523088708e-09
   -1.160762636137e-10 1.000000000000e+00 2.176000000000e+03 0.000000000000e+00
    2.400000000000e+00 0.000000000000e+00-1.536682248116e-08 2.600000000000e+01
    5.760000000000e+04 4.000000000000e+00
17 21  9 19 18  0  0.0 5.070688202977e-04 5.570655048359e-12 0.000000000000e+00
    4.100000000000e+01 1.087500000000e+01 3.669081403396e-09 1.103098232081e+00
    5.420297384262e-07 1.355353090912e-02 1.337006688118e-05 5.153673524857e+03
    6.480000000000e+04-2.104789018631e-07-2.776363015807e-01-2.216547727585e-07
    9.815273609886e-01 1.321250000000e+02-1.556160935915e+00-7.771037980638e-09
   -2.025084352892e-10 1.000000000000e+00 2.176000000000e+03 0.000000000000e+00
    2.400000000000e+00 0.000000000000e+00-1.117587089539e-08 4.100000000000e+01
    5.760000000000e+04 4.000000000000e+00
16 21  9 19 18  0  0.0-3.933231346309e-04-6.366462912410e-12 0.000000000000e+00
    1.010000000000e+02-4.428125000000e+01 4.554832584203e-09 1.940106435163e+00
   -2.428889274597e-06 1.223796454724e-02 5.917623639107e-06 5.153753238678e+03
    6.480000000000e+04-2.477318048477e-07-1.295517350926e+00-4.470348358154e-08
    9.718174763044e-01 2.763437500000e+02 6.795479167784e-01-8.150339494355e-09
   -4.982350392035e-10 1.000000000000e+00 2.176000000000e+03 0.000000000000e+00
    2.400000000000e+00 0.000000000000e+00-1.024454832077e-08 1.010000000000e+02
    5.760000000000e+04 4.000000000000e+00
14 21  9 19 18  0  0.0-2.032145857811e-06-8.071765478235e-12 0.000000000000e+00
    1.280000000000e+02-4.181250000000e+01 4.958777981578e-09-2.567312818107e+00
   -2.138316631317e-06 1.093961647712e-03 5.053356289864e-06 5.153636600494e+03
    6.480000000000e+04 2.421438694000e-08-1.343189338027e+00 1.676380634308e-08
    9.552312022424e-01 2.794062500000e+02 3.117197802658e+00-8.364634134872e-09
   -3.868018261344e-10 1.000000000000e+00 2.176000000000e+03 0.000000000000e+00
    2.400000000000e+00 0.000000000000e+00-7.916241884232e-09 1.280000000000e+02
    5.760000000000e+04 4.000000000000e+00
12 21  9 19 18  0  0.0-9.970972314477e-05-5.456968210638e-12 0.000000000000e+00
    8.600000000000e+01-4.834375000000e+01 4.508044921023e-09-2.514208723594e+00
   -2.386048436165e-06 8.246164303273e-03 5.135312676430e-06 5.153671743393e+03
    6.480000000000e+04 6.146728992462e-08-1.314220348953e+00-6.519258022308e-08
    9.717906259060e-01 2.864062500000e+02 1.229637965871e+00-7.994261564511e-09
   -3.885876148053e-10 1.000000000000e+00 2.176000000000e+03 0.000000000000e+00
    2.400000000000e+00 0.000000000000e+00-1.257285475731e-08 8.600000000000e+01
    5.760000000000e+04 4.000000000000e+00
10 21  9 19 18  0  0.0-2.066511660814e-04-7.844391802792e-12 0.000000000000e+00
    6.400000000000e+01-6.562500000000e+01 4.669480216880e-09-3.132571750656e+00
   -3.380700945854e-06 6.952285417356e-03 3.220513463020e-06 5.153674551010e+03
    6.480000000000e+04-7.450580596924e-08 1.753006460121e+00-1.173466444016e-07
    9.702105397919e-01 3.249062500000e+02-2.585495241123e+00-8.233557246422e-09
   -2.107230631757e-10 1.000000000000e+00 2.176000000000e+03 0.000000000000e+00
    2.400000000000e+00 0.000000000000e+00 2.328306436539e-09 6.400000000000e+01
    5.760000000000e+04 4.000000000000e+00
 9 21  9 19 18  0  0.0-3.611822612584e-04-5.684341886081e-13 0.000000000000e+00
    1.050000000000e+02-7.700000000000e+01 4.411255175056e-09 1.490366522994e+00
   -4.101544618607e-06 2.170404186472e-03 1.287460327148e-05 5.153717689514e+03
    6.480000000000e+04 3.725290298462e-09 2.785131869659e+00-4.470348358154e-08
    9.541018572806e-01 1.249375000000e+02 1.814855887690e+00-7.923544333140e-09
   -1.539349834385e-10 1.000000000000e+00 2.176000000000e+03 0.000000000000e+00
    2.400000000000e+00 0.000000000000e+00 1.396983861923e-09 1.050000000000e+02
    5.760000000000e+04 4.000000000000e+00
29 21  9 19 18  0  0.0-4.141489043832e-04-5.798028723802e-12 0.000000000000e+00
    8.500000000000e+01 1.531250000000e+01 3.601221433899e-09 1.076191442550e+00
    8.251518011093e-07 1.938795670867e-03 1.231580972672e-05 5.153582559586e+03
    6.480000000000e+04 6.146728992462e-08-2.649500354553e-01-7.450580596924e-09
    9.834621140360e-01 1.535625000000e+02 2.347560081437e+00-7.567815229881e-09
   -1.167905790821e-10 1.000000000000e+00 2.176000000000e+03 0.000000000000e+00
    2.400000000000e+00 0.000000000000e+00-1.024454832077e-08 8.500000000000e+01
    5.760000000000e+04 4.000000000000e+00
32 21  9 19 18  0  0.0-1.991167664528e-06-3.524291969370e-12 0.000000000000e+00
    8.400000000000e+01-6.012500000000e+01 4.373753612965e-09 1.787227879546e+00
   -3.106892108917e-06 5.101137096062e-03 1.211650669575e-05 5.153726974487e+03
    6.480000000000e+04-1.657754182816e-07 2.795662009584e+00-1.117587089539e-08
    9.580284713084e-01 1.461875000000e+02-2.377057896380e+00-7.921044229001e-09
   -1.196478409557e-10 1.000000000000e+00 2.176000000000e+03 0.000000000000e+00
    2.400000000000e+00 0.000000000000e+00 4.656612873077e-10 8.400000000000e+01
    5.760000000000e+04 4.000000000000e+00
27 21  9 19 18  0  0.0-1.951460726559e-04-5.229594535194e-12 0.000000000000e+00
    6.900000000000e+01 1.025000000000e+01 3.865875314938e-09 1.025820081935e+00
    5.085021257401e-07 9.509537252598e-03 1.224502921104e-05 5.153647956848e+03
    6.480000000000e+04-8.009374141693e-08-3.390700146442e-01 7.823109626770e-08
    9.751987686002e-01 1.525000000000e+02 6.332014343985e-01-7.743179677371e-09
   -3.443000557650e-10 1.000000000000e+00 2.176000000000e+03 0.000000000000e+00
    2.400000000000e+00 0.000000000000e+00 1.862645149231e-09 6.900000000000e+01
    5.760000000000e+04 4.000000000000e+00
30 21  9 19 18  0  0.0-4.744809120893e-04-3.751665644813e-12 0.000000000000e+00
    8.700000000000e+01 6.443750000000e+01 5.226646282225e-09-1.897678018981e+00
    3.254041075706e-06 5.359292612411e-03 7.487833499908e-06 5.153644367218e+03
    6.480000000000e+04 4.470348358154e-08-2.410890033304e+00-7.450580596924e-08
    9.366159149323e-01 2.214687500000e+02-2.733626797271e+00-8.384277810253e-09
    5.432369137122e-10 1.000000000000e+00 2.176000000000e+03 0.000000000000e+00
    2.400000000000e+00 0.000000000000e+00 3.725290298462e-09 8.700000000000e+01
    5.760000000000e+04 4.000000000000e+00
22 21  9 19 18  0  0.0-5.092793144286e-04 9.322320693173e-12 0.000000000000e+00
    7.100000000000e+01-5.540625000000e+01 5.697380175896e-09-4.131860263993e-02
   -2.890825271606e-06 6.733677000739e-03 2.000480890274e-06 5.153727983475e+03
    6.480000000000e+04-4.656612873077e-08 1.652278618231e+00-5.587935447693e-08
    9.360651994214e-01 3.297187500000e+02-8.957010967002e-01-9.042162356642e-09
   -1.153619481453e-10 1.000000000000e+00 2.176000000000e+03 0.000000000000e+00
    2.400000000000e+00 0.000000000000e+00-1.769512891769e-08 7.100000000000e+01
    5.760000000000e+04 4.000000000000e+00
